NORAD_CAT_ID,OBJECT_NAME,OBJECT_TYPE,EPOCH,MEAN_MOTION,ECCENTRICITY,INCLINATION,RA_OF_ASC_NODE,ARG_OF_PERICENTER,MEAN_ANOMALY,BSTAR,MEAN_MOTION_DOT,MEAN_MOTION_DDOT,TLE_LINE0,TLE_LINE1,TLE_LINE2,SEMIMAJOR_AXIS,PERIOD,APOGEE,PERIGEE,DECAYED
52869.0,STARLINK-4266,PAYLOAD,2022-08-07 22:00:00,15.73217791,0.0003829,53.2133,150.5196,7.6537,244.5837,0.00013409,0.00018257,0.0,0 STARLINK-4266,1 52869U 22062AR  22219.91667824  .00018257  00000-0  13409-3 0  9994,2 52869  53.2133 150.5196 0003829   7.6537 244.5837 15.73217791  1306,6727.844,91.532,352.286,347.1330000000001,0.0
52869.0,STARLINK-4266,PAYLOAD,2022-08-08 04:33:20,15.73224484,0.0003887,53.2143,149.1665,8.8216,351.2871,4.9944e-05,6.4e-05,0.0,0 STARLINK-4266,1 52869U 22062AR  22220.18981566  .00006400  00000-0  49944-4 0  9998,2 52869  53.2143 149.1665 0003887   8.8216 351.2871 15.73224484  8637,6727.825,91.532,352.305,347.075,0.0
52869.0,STARLINK-4266,PAYLOAD,2022-08-08 14:00:01,15.73244942,0.0003748,53.2129,147.2198,6.2754,64.0152,-1.8875e-05,-3.279e-05,0.0,0 STARLINK-4266,1 52869U 22062AR  22220.58335648 -.00003279  00000-0 -18875-4 0  9998,2 52869  53.2129 147.2198 0003748   6.2754  64.0152 15.73244942  1305,6727.767,91.531,352.154,347.11,0.0
52869.0,STARLINK-4266,PAYLOAD,2022-08-08 22:00:00,15.73256192,0.0003724,53.2133,145.5707,7.8763,151.33,-0.00057265,-0.00080456,0.0,0 STARLINK-4266,1 52869U 22062AR  22220.91667824 -.00080456  00000-0 -57265-3 0  9996,2 52869  53.2133 145.5707 0003724   7.8763 151.3300 15.73256192  1303,6727.735,91.53,352.105,347.095,0.0
52869.0,STARLINK-4266,PAYLOAD,2022-08-09 06:00:00,15.73184285,0.000394,53.2134,143.9225,5.0516,243.141,-0.00031401,-0.00044453,0.0,0 STARLINK-4266,1 52869U 22062AR  22221.25001157 -.00044453  00000-0 -31401-3 0  9996,2 52869  53.2134 143.9225 0003940   5.0516 243.1410 15.73184285  8804,6727.94,91.534,352.456,347.154,0.0
52869.0,STARLINK-4266,PAYLOAD,2022-08-09 14:00:01,15.73091514,0.0003739,53.2138,142.27100000000004,6.8939,330.1927,0.0002346999999999,0.000323,0.0,0 STARLINK-4266,1 52869U 22062AR  22221.58334491  .00032300  00000-0  23470-3 0  9995,2 52869  53.2138 142.2710 0003739   6.8939 330.1927 15.73091514  8850,6728.204000000002,91.539,352.585,347.55400000000014,0.0
52869.0,STARLINK-4266,PAYLOAD,2022-08-09 22:00:00,15.73135888,0.0003816999999999,53.214,140.6224,9.6957,56.1961,0.00010528,0.00014141,0.0,0 STARLINK-4266,1 52869U 22062AR  22221.91667824  .00014141  00000-0  10528-3 0  9994,2 52869  53.2140 140.6224 0003817   9.6957  56.1961 15.73135888  1302,6728.078,91.537,352.511,347.375,0.0
52869.0,STARLINK-4266,PAYLOAD,2022-08-10 14:00:01,15.73161742,0.0003742,53.2137,137.3228,10.1545,233.4842,0.00055984,0.0007858,0.0,0 STARLINK-4266,1 52869U 22062AR  22222.58334491  .00078580  00000-0  55984-3 0  9991,2 52869  53.2137 137.3228 0003742  10.1545 233.4842 15.73161742  1308,6728.004,91.535,352.38699999999994,347.352,0.0
52869.0,STARLINK-4266,PAYLOAD,2022-08-10 17:07:18,15.73178208,0.0003662,53.2138,136.6789,10.9388,249.7618,0.00049266,0.00069045,0.0,0 STARLINK-4266,1 52869U 22062AR  22222.71341435  .00069045  00000-0  49266-3 0  9994,2 52869  53.2138 136.6789 0003662  10.9388 249.7618 15.73178208  9031,6727.956999999999,91.534,352.286,347.3590000000001,0.0
52869.0,STARLINK-4266,PAYLOAD,2022-08-10 22:00:00,15.73258696,0.0003743,53.214,135.6743,9.7769,322.7618,-0.00070194,-0.00098286,0.0,0 STARLINK-4266,1 52869U 22062AR  22222.91667824 -.00098286  00000-0 -70194-3 0  9994,2 52869  53.2140 135.6743 0003743   9.7769 322.7618 15.73258696  1306,6727.728,91.53,352.111,347.075,0.0
52869.0,STARLINK-4266,PAYLOAD,2022-08-11 06:00:02,15.73177931,0.0003955,53.2139,134.0258,6.9575,54.6092,0.00018478,0.00025373,0.0,0 STARLINK-4266,1 52869U 22062AR  22223.25002315  .00025373  00000-0  18478-3 0  9992,2 52869  53.2139 134.0258 0003955   6.9575  54.6092 15.73177931  9113,6727.958000000001,91.534,352.4840000000001,347.162,0.0
52869.0,STARLINK-4266,PAYLOAD,2022-08-11 14:00:01,15.73150105,0.0003683999999999,53.2144,132.3743,5.0147,145.4265,0.00027272,0.00037754,0.0,0 STARLINK-4266,1 52869U 22062AR  22223.58334491  .00037754  00000-0  27272-3 0  9999,2 52869  53.2144 132.3743 0003684   5.0147 145.4265 15.73150105  1301,6728.0369999999975,91.536,352.381,347.4240000000001,0.0
52869.0,STARLINK-4266,PAYLOAD,2022-08-11 22:00:00,15.73189703,0.0003792,53.2145,130.7259,6.7496,232.5725,8.9454e-05,0.00011947,0.0,0 STARLINK-4266,1 52869U 22062AR  22223.91667824  .00011947  00000-0  89454-4 0  9992,2 52869  53.2145 130.7259 0003792   6.7496 232.5725 15.73189703  9225,6727.925,91.534,352.341,347.23800000000006,0.0
52869.0,STARLINK-4266,PAYLOAD,2022-08-12 06:00:00,15.7320599,0.0003976,53.2139,129.0773,6.0932,322.1620000000001,0.00052116,0.00073203,0.0,0 STARLINK-4266,1 52869U 22062AR  22224.25001157  .00073203  00000-0  52116-3 0  9998,2 52869  53.2139 129.0773 0003976   6.0932 322.1620 15.73205990  9274,6727.878000000002,91.533,352.418,347.0680000000001,0.0
52869.0,STARLINK-4266,PAYLOAD,2022-08-12 14:00:01,15.73256395,0.0003665,53.2139,127.4256,8.3304,48.9043,0.00031742,0.00044281,0.0,0 STARLINK-4266,1 52869U 22062AR  22224.58334491  .00044281  00000-0  31742-3 0  9990,2 52869  53.2139 127.4256 0003665   8.3304  48.9043 15.73256395  1308,6727.734,91.53,352.065,347.134,0.0
52869.0,STARLINK-4266,PAYLOAD,2022-08-12 20:00:01,15.73297817,0.000366,53.2142,126.1889,10.1027,23.9533,-0.00034695,-0.00049256,0.0,0 STARLINK-4266,1 52869U 22062AR  22224.83335648 -.00049256  00000-0 -34695-3 0  9992,2 52869  53.2142 126.1889 0003660  10.1027  23.9533 15.73297817  9363,6727.616,91.527,351.944,347.019,0.0
52869.0,STARLINK-4266,PAYLOAD,2022-08-12 22:00:01,15.73279862,0.0003745,53.2141,125.777,10.0454,136.2749,-0.00022809,-0.00032635,0.0,0 STARLINK-4266,1 52869U 22062AR  22224.91668981 -.00032635  00000-0 -22809-3 0  9997,2 52869  53.2141 125.7770 0003745  10.0454 136.2749 15.73279862  1306,6727.667,91.529,352.052,347.01300000000015,0.0
52869.0,STARLINK-4266,PAYLOAD,2022-08-13 06:00:02,15.73235131,0.0003859,53.2138,124.1281,6.3185,228.9603,-0.00063378,-0.00088815,0.0,0 STARLINK-4266,1 52869U 22062AR  22225.25002315 -.00088815  00000-0 -63378-3 0  9995,2 52869  53.2138 124.1281 0003859   6.3185 228.9603 15.73235131  9438,6727.795,91.531,352.256,347.064,0.0
52869.0,STARLINK-4266,PAYLOAD,2022-08-13 14:00:01,15.73140753,0.00036,53.2142,122.4765,2.5588,321.5949,-0.0001730999999999,-0.00024793,0.0,0 STARLINK-4266,1 52869U 22062AR  22225.58334491 -.00024793  00000-0 -17310-3 0  9994,2 52869  53.2142 122.4765 0003600   2.5588 321.5949 15.73140753  1306,6728.064,91.537,352.351,347.50699999999995,0.0
52869.0,STARLINK-4266,PAYLOAD,2022-08-13 22:00:00,15.73125758,0.0003765,53.2143,120.8285,1.935,51.06399999999999,0.00024947,0.00034432,0.0,0 STARLINK-4266,1 52869U 22062AR  22225.91667824  .00034432  00000-0  24947-3 0  9993,2 52869  53.2143 120.8285 0003765   1.9350  51.0640 15.73125758  1309,6728.107,91.538,352.505,347.439,0.0
52869.0,STARLINK-4266,PAYLOAD,2022-08-14 06:00:02,15.73162233,0.0003952,53.2151,119.1776,3.2659,138.6449,0.00098656,0.00139979,0.0,0 STARLINK-4266,1 52869U 22062AR  22226.25002315  .00139979  00000-0  98656-3 0  9999,2 52869  53.2151 119.1776 0003952   3.2659 138.6449 15.73162233  9585,6728.003000000002,91.535,352.527,347.209,0.0
52869.0,STARLINK-4266,PAYLOAD,2022-08-14 14:00:01,15.73217001,0.0003616,53.2135,117.5279,359.5358,231.2353,0.00067821,0.00095747,0.0,0 STARLINK-4266,1 52869U 22062AR  22226.58334491  .00095747  00000-0  67821-3 0  9992,2 52869  53.2135 117.5279 0003616 359.5358 231.2353 15.73217001  1307,6727.847,91.532,352.144,347.279,0.0
52869.0,STARLINK-4266,PAYLOAD,2022-08-14 22:00:00,15.73297286,0.0003775,53.2136,115.8798,1.8988,317.8478,-0.00070296,-0.00098588,0.0,0 STARLINK-4266,1 52869U 22062AR  22226.91667824 -.00098588  00000-0 -70296-3 0  9996,2 52869  53.2136 115.8798 0003775   1.8988 317.8478 15.73297286  1309,6727.618,91.528,352.022,346.9430000000001,0.0
52869.0,STARLINK-4266,PAYLOAD,2022-08-15 00:00:00,15.73274531,0.0003848,53.2136,115.4678,2.2058,69.8021,-0.00053601,-0.00075454,0.0,0 STARLINK-4266,1 52869U 22062AR  22227.00001157 -.00075454  00000-0 -53601-3 0  9996,2 52869  53.2136 115.4678 0003848   2.2058  69.8021 15.73274531  9704,6727.683000000001,91.529,352.13699999999994,346.959,0.0
52869.0,STARLINK-4266,PAYLOAD,2022-08-15 14:00:01,15.73199202,0.0003689999999999,53.2138,112.5786,3.4423,134.2584,-0.00021555,-0.00030776,0.0,0 STARLINK-4266,1 52869U 22062AR  22227.58334491 -.00030776  00000-0 -21555-3 0  9990,2 52869  53.2138 112.5786 0003690   3.4423 134.2584 15.73199202  1308,6727.897,91.533,352.245,347.28,0.0
52869.0,STARLINK-4266,PAYLOAD,2022-08-15 22:00:00,15.73168792,0.0003913999999999,53.2139,110.9306,7.0746,219.5449,0.00011272,0.00015209,0.0,0 STARLINK-4266,1 52869U 22062AR  22227.91667824  .00015209  00000-0  11272-3 0  9993,2 52869  53.2139 110.9306 0003914   7.0746 219.5449 15.73168792  9840,6727.984,91.535,352.482,347.216,0.0
52869.0,STARLINK-4266,PAYLOAD,2022-08-16 06:00:02,15.73208119,0.0003971,53.2134,109.2809,6.3428,309.2461,0.00019812,0.00027292,0.0,0 STARLINK-4266,1 52869U 22062AR  22228.25002315  .00027292  00000-0  19812-3 0  9992,2 52869  53.2134 109.2809 0003971   6.3428 309.2461 15.73208119  9902,6727.871999999999,91.533,352.409,347.065,0.0
52869.0,STARLINK-4266,PAYLOAD,2022-08-16 14:00:01,15.73220657,0.0003679,53.2135,107.6296,6.8677,37.6057,0.00041952,0.00058737,0.0,0 STARLINK-4266,1 52869U 22062AR  22228.58334491  .00058737  00000-0  41952-3 0  9999,2 52869  53.2135 107.6296 0003679   6.8677  37.6057 15.73220657  1301,6727.8359999999975,91.532,352.176,347.226,0.0
52869.0,STARLINK-4266,PAYLOAD,2022-08-16 22:00:00,15.73245522,0.0003848,53.2134,105.9817,4.3557,129.0877,-0.00044389,-0.0006261,0.0,0 STARLINK-4266,1 52869U 22062AR  22228.91667824 -.00062610  00000-0 -44389-3 0  9999,2 52869  53.2134 105.9817 0003848   4.3557 129.0877 15.73245522  1302,6727.765,91.531,352.219,347.042,0.0
